{"type": "FeatureCollection", "features": [ {"type": "Feature", "properties": {"norad_id": 45527, "name": "FENGYUN 1C DEB", "group": "fengyun-1c-debris", "lat": 70.15435324283312, "lon": 38.32763157847647, "alt_km": 825.5491247636937, "timestamp": "2025-12-22T23:36:21.004134+00:00", "meta": {"OBJECT_NAME": "FENGYUN 1C DEB", "OBJECT_ID": "1999-025EYS", "EPOCH": "2025-12-21T03:26:14.245152", "MEAN_MOTION": 14.245584, "ECCENTRICITY": 0.0055671, "INCLINATION": 98.739, "RA_OF_ASC_NODE": 61.722, "ARG_OF_PERICENTER": 201.8223, "MEAN_ANOMALY": 158.0584, "EPHEMERIS_TYPE": 0, "CLASSIFICATION_TYPE": "U", "NORAD_CAT_ID": 45527, "ELEMENT_SET_NO": 999, "REV_AT_EPOCH": 39699, "BSTAR": 0.0010577354, "MEAN_MOTION_DOT": 2.451e-05, "MEAN_MOTION_DDOT": 0}, "tle": {"line1": "1 45527U 99025EYS 25355.14322043  .00002451  00000+0  10577-2 0  9990", "line2": "2 45527  98.7390  61.7220 0055671 201.8223 158.0584 14.24558400396991"}}, "geometry": {"type": "Point", "coordinates": [38.32763157847647, 70.15435324283312]}}, {"type": "Feature", "properties": {"norad_id": 46440, "name": "FENGYUN 1C DEB", "group": "fengyun-1c-debris", "lat": -80.60429600553253, "lon": 89.70942700587285, "alt_km": 955.8557399246392, "timestamp": "2025-12-22T23:36:21.004145+00:00", "meta": {"OBJECT_NAME": "FENGYUN 1C DEB", "OBJECT_ID": "1999-025EYV", "EPOCH": "2025-12-20T20:25:34.567392", "MEAN_MOTION": 14.2032994, "ECCENTRICITY": 0.01764773, "INCLINATION": 98.5919, "RA_OF_ASC_NODE": 21.6185, "ARG_OF_PERICENTER": 111.8963, "MEAN_ANOMALY": 63.8759, "EPHEMERIS_TYPE": 0, "CLASSIFICATION_TYPE": "U", "NORAD_CAT_ID": 46440, "ELEMENT_SET_NO": 999, "REV_AT_EPOCH": 62484, "BSTAR": 0.00020023593, "MEAN_MOTION_DOT": 4.59e-06, "MEAN_MOTION_DDOT": 0}, "tle": {"line1": "1 46440U 99025EYV 25354.85109453  .00000459  00000+0  20024-3 0  9995", "line2": "2 46440  98.5919  21.6185 0176477 111.8963  63.8759 14.20329940624841"}}, "geometry": {"type": "Point", "coordinates": [89.70942700587285, -80.60429600553253]}}, {"type": "Feature", "properties": {"norad_id": 46443, "name": "FENGYUN 1C DEB", "group": "fengyun-1c-debris", "lat": 56.295669075688814, "lon": -101.78861419988553, "alt_km": 914.4247553206123, "timestamp": "2025-12-22T23:36:21.004155+00:00", "meta": {"OBJECT_NAME": "FENGYUN 1C DEB", "OBJECT_ID": "1999-025EYY", "EPOCH": "2025-12-20T03:05:02.260032", "MEAN_MOTION": 14.10879998, "ECCENTRICITY": 0.00966422, "INCLINATION": 99.2142, "RA_OF_ASC_NODE": 61.1998, "ARG_OF_PERICENTER": 334.8957, "MEAN_ANOMALY": 53.6355, "EPHEMERIS_TYPE": 0, "CLASSIFICATION_TYPE": "U", "NORAD_CAT_ID": 46443, "ELEMENT_SET_NO": 999, "REV_AT_EPOCH": 59700, "BSTAR": 0.0013066235, "MEAN_MOTION_DOT": 2.4e-05, "MEAN_MOTION_DDOT": 0}, "tle": {"line1": "1 46443U 99025EYY 25354.12849838  .00002400  00000+0  13066-2 0  9991", "line2": "2 46443  99.2142  61.1998 0096642 334.8957  53.6355 14.10879998597004"}}, "geometry": {"type": "Point", "coordinates": [-101.78861419988553, 56.295669075688814]}}, {"type": "Feature", "properties": {"norad_id": 46444, "name": "FENGYUN 1C DEB", "group": "fengyun-1c-debris", "lat": 40.853987928099194, "lon": -8.736086605127669, "alt_km": 786.3246982195469, "timestamp": "2025-12-22T23:36:21.004165+00:00", "meta": {"OBJECT_NAME": "FENGYUN 1C DEB", "OBJECT_ID": "1999-025EYZ", "EPOCH": "2025-12-18T06:45:06.153408", "MEAN_MOTION": 14.27169033, "ECCENTRICITY": 0.00846398, "INCLINATION": 98.5129, "RA_OF_ASC_NODE": 354.1289, "ARG_OF_PERICENTER": 134.7606, "MEAN_ANOMALY": 242.101, "EPHEMERIS_TYPE": 0, "CLASSIFICATION_TYPE": "U", "NORAD_CAT_ID": 46444, "ELEMENT_SET_NO": 999, "REV_AT_EPOCH": 62661, "BSTAR": 0.00039999748, "MEAN_MOTION_DOT": 9.72e-06, "MEAN_MOTION_DDOT": 0}, "tle": {"line1": "1 46444U 99025EYZ 25352.28132122  .00000972  00000+0  40000-3 0  9999", "line2": "2 46444  98.5129 354.1289 0084639 134.7606 242.1010 14.27169033626614"}}, "geometry": {"type": "Point", "coordinates": [-8.736086605127669, 40.853987928099194]}}, {"type": "Feature", "properties": {"norad_id": 46449, "name": "FENGYUN 1C DEB", "group": "fengyun-1c-debris", "lat": -76.48619441884776, "lon": 171.8455387492061, "alt_km": 696.4405587120527, "timestamp": "2025-12-22T23:36:21.004175+00:00", "meta": {"OBJECT_NAME": "FENGYUN 1C DEB", "OBJECT_ID": "1999-025EZE", "EPOCH": "2025-11-27T19:57:02.428704", "MEAN_MOTION": 14.19021773, "ECCENTRICITY": 0.02029501, "INCLINATION": 98.6463, "RA_OF_ASC_NODE": 6.5721, "ARG_OF_PERICENTER": 314.0231, "MEAN_ANOMALY": 44.4375, "EPHEMERIS_TYPE": 0, "CLASSIFICATION_TYPE": "U", "NORAD_CAT_ID": 46449, "ELEMENT_SET_NO": 999, "REV_AT_EPOCH": 57425, "BSTAR": 0.00050383916, "MEAN_MOTION_DOT": 1.244e-05, "MEAN_MOTION_DDOT": 0}, "tle": {"line1": "1 46449U 99025EZE 25331.83127811  .00001244  00000+0  50384-3 0  9990", "line2": "2 46449  98.6463   6.5721 0202950 314.0231  44.4375 14.19021773574253"}}, "geometry": {"type": "Point", "coordinates": [171.8455387492061, -76.48619441884776]}}, {"type": "Feature", "properties": {"norad_id": 46450, "name": "FENGYUN 1C DEB", "group": "fengyun-1c-debris", "lat": -29.628175227877257, "lon": 27.868169213122567, "alt_km": 1019.2794488383188, "timestamp": "2025-12-22T23:36:21.004185+00:00", "meta": {"OBJECT_NAME": "FENGYUN 1C DEB", "OBJECT_ID": "1999-025EZF", "EPOCH": "2025-12-13T07:39:30.370464", "MEAN_MOTION": 14.03577892, "ECCENTRICITY": 0.01825974, "INCLINATION": 98.0791, "RA_OF_ASC_NODE": 203.905, "ARG_OF_PERICENTER": 59.283, "MEAN_ANOMALY": 302.6187, "EPHEMERIS_TYPE": 0, "CLASSIFICATION_TYPE": "U", "NORAD_CAT_ID": 46450, "ELEMENT_SET_NO": 999, "REV_AT_EPOCH": 61127, "BSTAR": 0.0033356689, "MEAN_MOTION_DOT": 6.035e-05, "MEAN_MOTION_DDOT": 0}, "tle": {"line1": "1 46450U 99025EZF 25347.31910151  .00006035  00000+0  33357-2 0  9992", "line2": "2 46450  98.0791 203.9050 0182597  59.2830 302.6187 14.03577892611273"}}, "geometry": {"type": "Point", "coordinates": [27.868169213122567, -29.628175227877257]}}, {"type": "Feature", "properties": {"norad_id": 46451, "name": "FENGYUN 1C DEB", "group": "fengyun-1c-debris", "lat": 74.51263205248456, "lon": -15.751766241849968, "alt_km": 791.4339204851403, "timestamp": "2025-12-22T23:36:21.004196+00:00", "meta": {"OBJECT_NAME": "FENGYUN 1C DEB", "OBJECT_ID": "1999-025EZG", "EPOCH": "2025-12-19T13:06:32.347008", "MEAN_MOTION": 14.20458359, "ECCENTRICITY": 0.0171211, "INCLINATION": 98.1519, "RA_OF_ASC_NODE": 12.2278, "ARG_OF_PERICENTER": 166.0655, "MEAN_ANOMALY": 345.0723, "EPHEMERIS_TYPE": 0, "CLASSIFICATION_TYPE": "U", "NORAD_CAT_ID": 46451, "ELEMENT_SET_NO": 999, "REV_AT_EPOCH": 57103, "BSTAR": 0.0016021, "MEAN_MOTION_DOT": 3.946e-05, "MEAN_MOTION_DDOT": 0}, "tle": {"line1": "1 46451U 99025EZG 25353.54620772  .00003946  00000+0  16021-2 0  9999", "line2": "2 46451  98.1519  12.2278 0171211 166.0655 345.0723 14.20458359571030"}}, "geometry": {"type": "Point", "coordinates": [-15.751766241849968, 74.51263205248456]}}, {"type": "Feature", "properties": {"norad_id": 46468, "name": "FENGYUN 1C DEB", "group": "fengyun-1c-debris", "lat": 61.32293602952152, "lon": -78.50008673184668, "alt_km": 799.7509283987574, "timestamp": "2025-12-22T23:36:21.004206+00:00", "meta": {"OBJECT_NAME": "FENGYUN 1C DEB", "OBJECT_ID": "1999-025EZK", "EPOCH": "2025-12-21T17:25:46.716096", "MEAN_MOTION": 14.24795072, "ECCENTRICITY": 0.00465409, "INCLINATION": 98.8842, "RA_OF_ASC_NODE": 83.6114, "ARG_OF_PERICENTER": 205.391, "MEAN_ANOMALY": 306.8447, "EPHEMERIS_TYPE": 0, "CLASSIFICATION_TYPE": "U", "NORAD_CAT_ID": 46468, "ELEMENT_SET_NO": 999, "REV_AT_EPOCH": 73944, "BSTAR": 0.0014995537, "MEAN_MOTION_DOT": 3.491e-05, "MEAN_MOTION_DDOT": 0}, "tle": {"line1": "1 46468U 99025EZK 25355.72623514  .00003491  00000+0  14996-2 0  9990", "line2": "2 46468  98.8842  83.6114 0046540 205.3910 306.8447 14.24795072739441"}}, "geometry": {"type": "Point", "coordinates": [-78.50008673184668, 61.32293602952152]}}, {"type": "Feature", "properties": {"norad_id": 46986, "name": "FENGYUN 1C DEB", "group": "fengyun-1c-debris", "lat": 40.24105611167182, "lon": 13.41939730251338, "alt_km": 788.3718225692428, "timestamp": "2025-12-22T23:36:21.004216+00:00", "meta": {"OBJECT_NAME": "FENGYUN 1C DEB", "OBJECT_ID": "1999-025EZL", "EPOCH": "2025-12-21T19:12:19.808928", "MEAN_MOTION": 14.47210504, "ECCENTRICITY": 0.01050551, "INCLINATION": 98.2361, "RA_OF_ASC_NODE": 19.3086, "ARG_OF_PERICENTER": 184.2528, "MEAN_ANOMALY": 175.7783, "EPHEMERIS_TYPE": 0, "CLASSIFICATION_TYPE": "U", "NORAD_CAT_ID": 46986, "ELEMENT_SET_NO": 999, "REV_AT_EPOCH": 63531, "BSTAR": 0.00032525061, "MEAN_MOTION_DOT": 1.226e-05, "MEAN_MOTION_DDOT": 0}, "tle": {"line1": "1 46986U 99025EZL 25355.80022927  .00001226  00000+0  32525-3 0  9998", "line2": "2 46986  98.2361  19.3086 0105055 184.2528 175.7783 14.47210504635311"}}, "geometry": {"type": "Point", "coordinates": [13.41939730251338, 40.24105611167182]}}, {"type": "Feature", "properties": {"norad_id": 46989, "name": "FENGYUN 1C DEB", "group": "fengyun-1c-debris", "lat": 27.590002704138527, "lon": -16.16957254432838, "alt_km": 1130.0244088047211, "timestamp": "2025-12-22T23:36:21.004227+00:00", "meta": {"OBJECT_NAME": "FENGYUN 1C DEB", "OBJECT_ID": "1999-025EZP", "EPOCH": "2025-12-21T17:20:53.259360", "MEAN_MOTION": 13.79402442, "ECCENTRICITY": 0.02430853, "INCLINATION": 99.5065, "RA_OF_ASC_NODE": 157.5409, "ARG_OF_PERICENTER": 313.5533, "MEAN_ANOMALY": 62.0427, "EPHEMERIS_TYPE": 0, "CLASSIFICATION_TYPE": "U", "NORAD_CAT_ID": 46989, "ELEMENT_SET_NO": 999, "REV_AT_EPOCH": 71166, "BSTAR": 0.0037000278, "MEAN_MOTION_DOT": 4.701e-05, "MEAN_MOTION_DDOT": 0}, "tle": {"line1": "1 46989U 99025EZP 25355.72283865  .00004701  00000+0  37000-2 0  9995", "line2": "2 46989  99.5065 157.5409 0243085 313.5533  62.0427 13.79402442711666"}}, "geometry": {"type": "Point", "coordinates": [-16.16957254432838, 27.590002704138527]}}]}